{"type": "FeatureCollection", "features": [ {"type": "Feature", "properties": {"norad_id": 34681, "name": "COSMOS 2251 DEB", "group": "cosmos-2251-debris", "lat": -17.77341235029983, "lon": 135.26112936119137, "alt_km": 642.8465697500815, "timestamp": "2025-12-02T19:35:50.949449+00:00", "meta": {"OBJECT_NAME": "COSMOS 2251 DEB", "OBJECT_ID": "1993-036YB", "EPOCH": "2025-12-02T09:40:51.308832", "MEAN_MOTION": 14.82797015, "ECCENTRICITY": 0.002571, "INCLINATION": 74.0621, "RA_OF_ASC_NODE": 310.8211, "ARG_OF_PERICENTER": 9.2284, "MEAN_ANOMALY": 144.4984, "EPHEMERIS_TYPE": 0, "CLASSIFICATION_TYPE": "U", "NORAD_CAT_ID": 34681, "ELEMENT_SET_NO": 999, "REV_AT_EPOCH": 89117, "BSTAR": 0.0018249, "MEAN_MOTION_DOT": 0.00014844, "MEAN_MOTION_DDOT": 0}, "tle": {"line1": "1 34681U 93036YB  25336.40337163  .00014844  00000+0  18249-2 0  9995", "line2": "2 34681  74.0621 310.8211 0025710   9.2284 144.4984 14.82797015891174"}}, "geometry": {"type": "Point", "coordinates": [135.26112936119137, -17.77341235029983]}}, {"type": "Feature", "properties": {"norad_id": 34682, "name": "COSMOS 2251 DEB", "group": "cosmos-2251-debris", "lat": 73.14960656508543, "lon": -149.01917857910706, "alt_km": 699.8901774302594, "timestamp": "2025-12-02T19:35:50.949459+00:00", "meta": {"OBJECT_NAME": "COSMOS 2251 DEB", "OBJECT_ID": "1993-036YC", "EPOCH": "2025-12-02T09:32:40.156800", "MEAN_MOTION": 14.5876009, "ECCENTRICITY": 0.001876, "INCLINATION": 74.0384, "RA_OF_ASC_NODE": 102.681, "ARG_OF_PERICENTER": 235.8907, "MEAN_ANOMALY": 180.8441, "EPHEMERIS_TYPE": 0, "CLASSIFICATION_TYPE": "U", "NORAD_CAT_ID": 34682, "ELEMENT_SET_NO": 999, "REV_AT_EPOCH": 88535, "BSTAR": 0.001216, "MEAN_MOTION_DOT": 5.669e-05, "MEAN_MOTION_DDOT": 0}, "tle": {"line1": "1 34682U 93036YC  25336.39768700  .00005669  00000+0  12160-2 0  9990", "line2": "2 34682  74.0384 102.6810 0018760 235.8907 180.8441 14.58760090885350"}}, "geometry": {"type": "Point", "coordinates": [-149.01917857910706, 73.14960656508543]}}, {"type": "Feature", "properties": {"norad_id": 34683, "name": "COSMOS 2251 DEB", "group": "cosmos-2251-debris", "lat": 47.74814920907366, "lon": 129.72128128271834, "alt_km": 688.3259175037647, "timestamp": "2025-12-02T19:35:50.949470+00:00", "meta": {"OBJECT_NAME": "COSMOS 2251 DEB", "OBJECT_ID": "1993-036YD", "EPOCH": "2025-12-02T11:27:29.869920", "MEAN_MOTION": 14.64239853, "ECCENTRICITY": 0.0019062, "INCLINATION": 74.0275, "RA_OF_ASC_NODE": 111.994, "ARG_OF_PERICENTER": 227.5476, "MEAN_ANOMALY": 195.9599, "EPHEMERIS_TYPE": 0, "CLASSIFICATION_TYPE": "U", "NORAD_CAT_ID": 34683, "ELEMENT_SET_NO": 999, "REV_AT_EPOCH": 88198, "BSTAR": 0.0017433, "MEAN_MOTION_DOT": 9.191e-05, "MEAN_MOTION_DDOT": 0}, "tle": {"line1": "1 34683U 93036YD  25336.47742905  .00009191  00000+0  17433-2 0  9991", "line2": "2 34683  74.0275 111.9940 0019062 227.5476 195.9599 14.64239853881983"}}, "geometry": {"type": "Point", "coordinates": [129.72128128271834, 47.74814920907366]}}, {"type": "Feature", "properties": {"norad_id": 34685, "name": "COSMOS 2251 DEB", "group": "cosmos-2251-debris", "lat": 73.96982117859493, "lon": -106.97088097400561, "alt_km": 704.5081849744347, "timestamp": "2025-12-02T19:35:50.949480+00:00", "meta": {"OBJECT_NAME": "COSMOS 2251 DEB", "OBJECT_ID": "1993-036YF", "EPOCH": "2025-12-02T12:44:28.564224", "MEAN_MOTION": 14.57357049, "ECCENTRICITY": 0.0014449, "INCLINATION": 74.0292, "RA_OF_ASC_NODE": 168.1902, "ARG_OF_PERICENTER": 272.1094, "MEAN_ANOMALY": 118.4301, "EPHEMERIS_TYPE": 0, "CLASSIFICATION_TYPE": "U", "NORAD_CAT_ID": 34685, "ELEMENT_SET_NO": 999, "REV_AT_EPOCH": 88383, "BSTAR": 0.0011677, "MEAN_MOTION_DOT": 5.273e-05, "MEAN_MOTION_DDOT": 0}, "tle": {"line1": "1 34685U 93036YF  25336.53088616  .00005273  00000+0  11677-2 0  9993", "line2": "2 34685  74.0292 168.1902 0014449 272.1094 118.4301 14.57357049883839"}}, "geometry": {"type": "Point", "coordinates": [-106.97088097400561, 73.96982117859493]}}, {"type": "Feature", "properties": {"norad_id": 34689, "name": "COSMOS 2251 DEB", "group": "cosmos-2251-debris", "lat": 27.552072761098845, "lon": -110.79148123598777, "alt_km": 837.3082170358448, "timestamp": "2025-12-02T19:35:50.949490+00:00", "meta": {"OBJECT_NAME": "COSMOS 2251 DEB", "OBJECT_ID": "1993-036YK", "EPOCH": "2025-12-01T04:52:05.077056", "MEAN_MOTION": 14.04150485, "ECCENTRICITY": 0.0229843, "INCLINATION": 74.0888, "RA_OF_ASC_NODE": 243.4543, "ARG_OF_PERICENTER": 314.8144, "MEAN_ANOMALY": 197.2792, "EPHEMERIS_TYPE": 0, "CLASSIFICATION_TYPE": "U", "NORAD_CAT_ID": 34689, "ELEMENT_SET_NO": 999, "REV_AT_EPOCH": 84179, "BSTAR": 0.0056499, "MEAN_MOTION_DOT": 0.00011323, "MEAN_MOTION_DDOT": 0}, "tle": {"line1": "1 34689U 93036YK  25335.20283654  .00011323  00000+0  56499-2 0  9993", "line2": "2 34689  74.0888 243.4543 0229843 314.8144 197.2792 14.04150485841793"}}, "geometry": {"type": "Point", "coordinates": [-110.79148123598777, 27.552072761098845]}}, {"type": "Feature", "properties": {"norad_id": 34721, "name": "COSMOS 2251 DEB", "group": "cosmos-2251-debris", "lat": -32.30645025223724, "lon": -27.039950214371743, "alt_km": 788.1188433724792, "timestamp": "2025-12-02T19:35:50.949500+00:00", "meta": {"OBJECT_NAME": "COSMOS 2251 DEB", "OBJECT_ID": "1993-036YP", "EPOCH": "2025-12-02T07:48:06.027264", "MEAN_MOTION": 13.96762831, "ECCENTRICITY": 0.022397, "INCLINATION": 73.9234, "RA_OF_ASC_NODE": 344.3187, "ARG_OF_PERICENTER": 285.1168, "MEAN_ANOMALY": 89.0422, "EPHEMERIS_TYPE": 0, "CLASSIFICATION_TYPE": "U", "NORAD_CAT_ID": 34721, "ELEMENT_SET_NO": 999, "REV_AT_EPOCH": 85004, "BSTAR": 0.0021289, "MEAN_MOTION_DOT": 3.628e-05, "MEAN_MOTION_DDOT": 0}, "tle": {"line1": "1 34721U 93036YP  25336.32506976  .00003628  00000+0  21289-2 0  9997", "line2": "2 34721  73.9234 344.3187 0223970 285.1168  89.0422 13.96762831850049"}}, "geometry": {"type": "Point", "coordinates": [-27.039950214371743, -32.30645025223724]}}, {"type": "Feature", "properties": {"norad_id": 34722, "name": "COSMOS 2251 DEB", "group": "cosmos-2251-debris", "lat": 12.682166190939716, "lon": -2.498456239499321, "alt_km": 856.5551279370538, "timestamp": "2025-12-02T19:35:50.949510+00:00", "meta": {"OBJECT_NAME": "COSMOS 2251 DEB", "OBJECT_ID": "1993-036YQ", "EPOCH": "2025-12-02T11:45:46.622880", "MEAN_MOTION": 14.11878385, "ECCENTRICITY": 0.0167511, "INCLINATION": 73.8718, "RA_OF_ASC_NODE": 354.3501, "ARG_OF_PERICENTER": 281.6689, "MEAN_ANOMALY": 231.1645, "EPHEMERIS_TYPE": 0, "CLASSIFICATION_TYPE": "U", "NORAD_CAT_ID": 34722, "ELEMENT_SET_NO": 999, "REV_AT_EPOCH": 86100, "BSTAR": 0.0010658, "MEAN_MOTION_DOT": 2.195e-05, "MEAN_MOTION_DDOT": 0}, "tle": {"line1": "1 34722U 93036YQ  25336.49012295  .00002195  00000+0  10658-2 0  9998", "line2": "2 34722  73.8718 354.3501 0167511 281.6689 231.1645 14.11878385861009"}}, "geometry": {"type": "Point", "coordinates": [-2.498456239499321, 12.682166190939716]}}, {"type": "Feature", "properties": {"norad_id": 34726, "name": "COSMOS 2251 DEB", "group": "cosmos-2251-debris", "lat": 35.42995791925501, "lon": 173.49764972207407, "alt_km": 663.3681113572502, "timestamp": "2025-12-02T19:35:50.949536+00:00", "meta": {"OBJECT_NAME": "COSMOS 2251 DEB", "OBJECT_ID": "1993-036YU", "EPOCH": "2025-12-02T05:47:02.848416", "MEAN_MOTION": 14.59417296, "ECCENTRICITY": 0.0042578, "INCLINATION": 74.0293, "RA_OF_ASC_NODE": 6.351, "ARG_OF_PERICENTER": 160.2516, "MEAN_ANOMALY": 200.031, "EPHEMERIS_TYPE": 0, "CLASSIFICATION_TYPE": "U", "NORAD_CAT_ID": 34726, "ELEMENT_SET_NO": 999, "REV_AT_EPOCH": 88349, "BSTAR": 0.00051339, "MEAN_MOTION_DOT": 2.434e-05, "MEAN_MOTION_DDOT": 0}, "tle": {"line1": "1 34726U 93036YU  25336.24100519  .00002434  00000+0  51339-3 0  9990", "line2": "2 34726  74.0293   6.3510 0042578 160.2516 200.0310 14.59417296883497"}}, "geometry": {"type": "Point", "coordinates": [173.49764972207407, 35.42995791925501]}}, {"type": "Feature", "properties": {"norad_id": 34728, "name": "COSMOS 2251 DEB", "group": "cosmos-2251-debris", "lat": -22.530571299044777, "lon": -95.77242857350606, "alt_km": 666.3343825346356, "timestamp": "2025-12-02T19:35:50.949549+00:00", "meta": {"OBJECT_NAME": "COSMOS 2251 DEB", "OBJECT_ID": "1993-036YW", "EPOCH": "2025-11-30T13:49:42.045312", "MEAN_MOTION": 14.70651405, "ECCENTRICITY": 0.0040689, "INCLINATION": 74.0169, "RA_OF_ASC_NODE": 275.4077, "ARG_OF_PERICENTER": 76.4781, "MEAN_ANOMALY": 284.0918, "EPHEMERIS_TYPE": 0, "CLASSIFICATION_TYPE": "U", "NORAD_CAT_ID": 34728, "ELEMENT_SET_NO": 999, "REV_AT_EPOCH": 88621, "BSTAR": 0.00075074, "MEAN_MOTION_DOT": 4.599e-05, "MEAN_MOTION_DDOT": 0}, "tle": {"line1": "1 34728U 93036YW  25334.57618108  .00004599  00000+0  75074-3 0  9990", "line2": "2 34728  74.0169 275.4077 0040689  76.4781 284.0918 14.70651405886215"}}, "geometry": {"type": "Point", "coordinates": [-95.77242857350606, -22.530571299044777]}}, {"type": "Feature", "properties": {"norad_id": 34729, "name": "COSMOS 2251 DEB", "group": "cosmos-2251-debris", "lat": -65.16078237242853, "lon": -20.16871208066947, "alt_km": 635.9268602311686, "timestamp": "2025-12-02T19:35:50.949561+00:00", "meta": {"OBJECT_NAME": "COSMOS 2251 DEB", "OBJECT_ID": "1993-036YX", "EPOCH": "2025-12-02T03:59:29.960736", "MEAN_MOTION": 14.82315258, "ECCENTRICITY": 0.00122865, "INCLINATION": 74.0195, "RA_OF_ASC_NODE": 19.3666, "ARG_OF_PERICENTER": 145.0908, "MEAN_ANOMALY": 275.6495, "EPHEMERIS_TYPE": 0, "CLASSIFICATION_TYPE": "U", "NORAD_CAT_ID": 34729, "ELEMENT_SET_NO": 999, "REV_AT_EPOCH": 88301, "BSTAR": 0.0020682703, "MEAN_MOTION_DOT": 0.00016565, "MEAN_MOTION_DDOT": 0}, "tle": {"line1": "1 34729U 93036YX  25336.16631899  .00016565  00000+0  20683-2 0  9991", "line2": "2 34729  74.0195  19.3666 0012286 145.0908 275.6495 14.82315258883017"}}, "geometry": {"type": "Point", "coordinates": [-20.16871208066947, -65.16078237242853]}}]}